[{"OBJECT_NAME":"STARLINK-35720","OBJECT_ID":"2025-294Y","EPOCH":"2026-03-09T21:46:41.755008","MEAN_MOTION":15.27587029,"ECCENTRICITY":0.00014529,"INCLINATION":43.0044,"RA_OF_ASC_NODE":36.7413,"ARG_OF_PERICENTER":247.9549,"MEAN_ANOMALY":112.1149,"EPHEMERIS_TYPE":0,"CLASSIFICATION_TYPE":"U","NORAD_CAT_ID":67052,"ELEMENT_SET_NO":999,"REV_AT_EPOCH":1483,"BSTAR":0.0011897905,"MEAN_MOTION_DOT":0.0003263,"MEAN_MOTION_DDOT":0},{"OBJECT_NAME":"SL-3 R\/B","OBJECT_ID":"1982-079B","EPOCH":"2026-03-09T22:18:18.158976","MEAN_MOTION":15.24805533,"ECCENTRICITY":0.00250364,"INCLINATION":81.1481,"RA_OF_ASC_NODE":192.7939,"ARG_OF_PERICENTER":164.0597,"MEAN_ANOMALY":196.143,"EPHEMERIS_TYPE":0,"CLASSIFICATION_TYPE":"U","NORAD_CAT_ID":13403,"ELEMENT_SET_NO":999,"REV_AT_EPOCH":37773,"BSTAR":0.00032485557,"MEAN_MOTION_DOT":8.157e-5,"MEAN_MOTION_DDOT":0}]
